ONEWEB-0574             
1 56063U 23043T   23304.43709439 -.00000016  00000+0 -70406-4 0  9992
2 56063  87.9232  75.0427 0001541  99.2638 260.8670 13.21828964 31485
ONEWEB-0575             
1 56064U 23043U   23304.91668981  .00000016  00000+0  00000+0 0  9998
2 56064  87.5631  60.4115 0001801  66.5789 243.2992 13.84353768 33534
ONEWEB-0576             
1 56065U 23043V   23304.91668981  .00000016  00000+0  00000+0 0  9999
2 56065  87.5728  60.3855 0002832  59.5008 206.4363 13.82689110 33537
ONEWEB-0577             
1 56066U 23043W   23304.91668981  .00000016  00000+0  00000+0 0  9990
2 56066  87.5551  60.4449 0004175  94.5687 129.0749 13.85588046 33555
ONEWEB-0578             
1 56067U 23043X   23304.87865299  .00000046  00000+0  79496-4 0  9990
2 56067  87.9229  74.9493 0001696 102.5733 257.5590 13.21824915 32411
ONEWEB-0579             
1 56068U 23043Y   23304.41501911  .00000090  00000+0  18669-3 0  9992
2 56068  87.9223  75.0441 0001699  80.2036 279.9289 13.21826360 31454
ONEWEB-0581             
1 56069U 23043Z   23304.91668981  .00000016  00000+0  00000+0 0  9993
2 56069  87.5814  60.4453 0003358  45.2430 145.0652 13.82246206 33531
ONEWEB-0609             
1 56070U 23043AA  23304.87266449  .00000311  00000+0  79330-3 0  9997
2 56070  87.8943  90.2118 0001467  96.6978 263.4319 13.15499666 31218
